[{"OBJECT_NAME":"STARLINK-34758","OBJECT_ID":"2025-158P","EPOCH":"2026-03-09T14:30:35.677440","MEAN_MOTION":15.05652349,"ECCENTRICITY":0.0002855,"INCLINATION":97.6014,"RA_OF_ASC_NODE":294.014,"ARG_OF_PERICENTER":87.6603,"MEAN_ANOMALY":272.495,"EPHEMERIS_TYPE":0,"CLASSIFICATION_TYPE":"U","NORAD_CAT_ID":64945,"ELEMENT_SET_NO":999,"REV_AT_EPOCH":3534,"BSTAR":0.00039459,"MEAN_MOTION_DOT":5.638e-5,"MEAN_MOTION_DDOT":0},{"OBJECT_NAME":"SL-14 R\/B","OBJECT_ID":"1986-006B","EPOCH":"2026-03-09T22:10:50.144736","MEAN_MOTION":14.86815194,"ECCENTRICITY":0.00750516,"INCLINATION":82.5234,"RA_OF_ASC_NODE":259.5165,"ARG_OF_PERICENTER":271.9927,"MEAN_ANOMALY":87.2696,"EPHEMERIS_TYPE":0,"CLASSIFICATION_TYPE":"U","NORAD_CAT_ID":16496,"ELEMENT_SET_NO":999,"REV_AT_EPOCH":14924,"BSTAR":8.3491519e-5,"MEAN_MOTION_DOT":8.08e-6,"MEAN_MOTION_DDOT":0}]
